#dP2025  1 16  6  0  0.00000000      96 __u+U IGS20 EXT  IAC
## 2349 367200.00000000   900.00000000 60691 0.2500000000000
+   52   G01G02G03G04G05G06G07G08G09G10G11G12G13G14G15G16G17
+        G18G19G20G21G22G23G24G25G26G27G28G29G30G31G32R01R02
+        R03R04R05R07R08R09R11R12R14R15R16R17R18R19R20R21R22
+        R24  0  0  0  0  0  0  0  0  0  0  0  0  0  0  0  0
+          0  0  0  0  0  0  0  0  0  0  0  0  0  0  0  0  0
++         9  8  8  9  8  8  9  8  9  8  8  8  9  9  9  8  9
++         8  9  9  8  8  8  8  8  8  8  9  9  9  9  8  9  9
++         9 10  9  9  9  8 10  8  9  9  9  8  8  8  8  8  8
++         8  0  0  0  0  0  0  0  0  0  0  0  0  0  0  0  0
++         0  0  0  0  0  0  0  0  0  0  0  0  0  0  0  0  0
%c M  cc GPS ccc cccc cccc cccc cccc ccccc ccccc ccccc ccccc
%c cc cc ccc ccc cccc cccc cccc cccc ccccc ccccc ccccc ccccc
%f  0.0000000  0.000000000  0.00000000000  0.000000000000000
%f  0.0000000  0.000000000  0.00000000000  0.000000000000000
%i    0    0    0    0      0      0      0      0         0
%i    0    0    0    0      0      0      0      0         0
/* IAC                                ULTRA-RAPID PREDICTION
/* S/V CLOCKS ARE ALIGNED TO GNSS TIME                      
/* G:C1WC2W R:C1PC2P E:C1XC5X C:C2IC6I J:C1CC2S             
/* PCV:IGS20_2317 OL/AL:FES2004  NONE     YN ORB:CoN CLK:CoN
*  2025 01 16 23 30  0.00000000
PG01  17496.244914   7115.418083  18683.656723     54.148720
PG02  19352.805576   7906.055927  17076.396098   -266.131127
PG03  17616.130682  -4375.514815  19182.112380    647.381198
PG04  26584.139365    445.978670  -1717.725690    513.049367
PG05 -11091.307323 -10609.411185 -21844.243298   -199.234177
PG06  -4002.736806 -23693.800810  11248.315450   -123.462308
PG07  12531.629951  -8665.807046 -21198.438121    -13.469099
PG08  24203.715303   6531.772813  -9575.250027    462.315605
PG09  23500.566490  -7172.278154 -10267.358923    531.488479
PG10  -9141.807854  23767.336551   7142.633425   -279.826798
PG11 -11957.813442 -23744.211803   -546.654584   -751.486424
PG12 -17333.322673    461.306206  19817.738630   -564.873826
PG13 -17470.075055 -13475.805943 -15195.640992    693.698222
PG14  12153.988705 -23256.103123   3202.953977    581.320884
PG15 -24740.840382  -3786.911315  -9619.454963    252.479654
PG16   6236.403684  15859.346525 -20616.980912    -76.105058
PG17  10870.380943 -13405.935749  20649.568861    470.940204
PG18 -10736.901657  11088.330227 -21554.752750   -657.600632
PG19  -1092.900077 -15243.210452  21615.829354    587.044225
PG20  -3770.098033 -21050.138047 -15745.495626    367.015795
PG21  19770.086333  14497.292569  11886.137034    101.190098
PG22   7447.341784 -23236.020331  11243.428185    -92.656679
PG23 -16665.540906  19179.547954  -7268.634036    405.270023
PG24 -19784.168769 -10170.513002  14329.835714   -463.174088
PG25 -18498.350445  13776.433723  12572.743958    496.630077
PG26   -355.362278  22923.167990 -13260.759509    -51.183218
PG27  15432.267138  12820.101640 -17931.401503    -32.955783
PG28   3216.503202  23091.637094  12709.674624   -537.176008
PG29 -23981.279890   4856.991695 -10531.763923   -546.474309
PG30   3866.320097 -19513.118272 -17317.324107   -237.558627
PG31   9391.939778  24280.502977   3915.680330   -217.713033
PG32  -4822.596997  14936.787096  21634.802871   -540.263514
PR01 -16370.100618  -3587.914373 -19230.116549    111.485589
PR02 -24346.618169   5509.622280  -5018.239774    -38.412011
PR03 -18474.152974  12398.647675  12467.673629    115.039980
PR04  -3023.792392  11832.721667  22423.157394    272.837801
PR05  14226.773740   5314.766745  20515.748348    143.846406
PR07  18402.039226 -12400.853397 -12585.401175     99.013544
PR08   2667.142909 -11890.562577 -22351.335518     -6.385117
PR09  11854.163136  -4584.465616 -22088.838564    232.512729
PR11   3031.440391 -25079.151051   3477.854903     -1.315033
PR12  -6815.144306 -14689.024521  19730.100190     49.681709
PR14  -9645.726582  20390.288225  11933.564290     27.593878
PR15  -2234.322355  24860.636560  -5261.633884     72.119793
PR16   6648.079843  14807.719032 -19688.063892     32.508710
PR17  -6487.632142   8469.313509 -23156.362539    158.117549
PR18   7787.707081  17465.141707 -16890.536739    182.273217
PR19  16799.903834  18782.990686  -3948.918183   -305.772946
PR20  18129.362401   7438.024335  16369.458928   -124.632167
PR21   7532.534346  -7433.651524  23213.379938   -168.798340
PR22  -8176.020852 -18195.881525  15919.095204    -56.324362
PR24 -18508.143481  -5894.201483 -16519.746038    -88.499683
*  2025 01 16 23 45  0.00000000
PG01  18257.372328   9018.220012  17063.716413     54.175828
PG02  20259.976226   9409.237834  15129.812532   -266.122881
PG03  16542.984995  -2342.276172  20451.120244    647.387718
PG04  26612.582846    672.501824   1141.462661    513.054604
PG05  -9954.223039 -12751.336569 -21227.459911   -199.235174
PG06  -3177.882697 -22534.534869  13662.242811   -123.486293
PG07  13835.920231  -6479.554399 -21208.562831    -13.468860
PG08  23009.994070   6801.079607 -12009.871037    462.322476
PG09  24520.239861  -6979.799364  -7668.605438    531.501837
PG10  -9625.350112  24219.158551   4314.926088   -279.841124
PG11 -11703.761027 -23769.117572   2313.603411   -751.485401
PG12 -16093.748260  -1575.595806  20772.974738   -564.875823
PG13 -15669.036744 -13359.005439 -17145.380268    693.699289
PG14  12533.218036 -23265.040483    377.117677    581.327294
PG15 -23629.075790  -4232.584209 -12042.565041    252.483679
PG16   4872.420343  17633.296718 -19451.997950    -76.096565
PG17  13071.219703 -13207.469973  19461.324598    470.924329
PG18 -11989.178073   8933.500893 -21911.855228   -657.599355
PG19   1402.506520 -14995.857512  21730.929821    587.048279
PG20  -3032.170220 -22585.554750 -13661.951269    367.015513
PG21  20323.200968  15501.302986   9444.121192    101.190878
PG22   8230.721480 -24011.952797   8720.959471    -92.658429
PG23 -16369.293639  18210.205336  -9948.225710    405.276743
PG24 -20518.566860 -11588.072654  12161.726310   -463.170445
PG25 -17940.908760  12223.958496  14759.461853    496.629538
PG26  -1206.086595  24050.548373 -10948.276897    -51.197154
PG27  13368.931944  12963.751682 -19410.075613    -32.955369
PG28   2207.459590  21856.816792  14915.085868   -537.184598
PG29 -25011.591799   4583.552745  -7936.161381   -546.471160
PG30   5103.500586 -17792.472937 -18799.212231   -237.551038
PG31   8820.086735  23864.203727   6691.185241   -217.712253
PG32  -7213.561696  14914.262227  20949.537720   -540.257092
PR01 -14054.642630  -4456.269959 -20813.718471    111.486684
PR02 -23520.695098   5384.436948  -8115.283632    -38.411794
PR03 -19694.883493  13012.737195   9635.862055    115.040487
PR04  -5539.225248  12809.056862  21379.197731    272.839218
PR05  11744.498055   6126.032517  21817.959573    143.846838
PR07  19646.859723 -13026.752652  -9770.559029     99.014135
PR08   5187.761867 -12890.752246 -21337.098771     -6.385267
PR09  11489.435666  -1843.959377 -22679.113998    232.514682
PR11   2925.881098 -25329.354944    276.956926     -1.317803
PR12  -6525.540864 -16989.341202  17895.749364     49.682015
PR14  -9310.053937  18790.919781  14540.060569     27.593835
PR15  -2182.065411  25330.338221  -2101.251919     72.119393
PR16   6378.175162  17107.961829 -17828.033922     32.508807
PR17  -8689.892779   6652.041307 -23030.738989    158.120476
PR18   6185.938993  15928.829883 -18940.304651    182.274977
PR19  16435.681668  18167.554564  -7099.758368   -305.774213
PR20  19621.301994   8573.318056  13910.536396   -124.632664
PR21   9717.805068  -5607.294404  22910.500340   -168.801353
PR22  -6677.434757 -16731.909006  18082.425200    -56.326104
PR24 -20040.065119  -7014.404763 -14125.399439    -88.501215
EOF
